NAVSTAR 79 (USA 304)    
1 45854U 20041A   26158.51480097 -.00000067  00000+0  00000+0 0  9991
2 45854  56.6631  29.3193 0063521 204.6414 337.4617  2.00559006 43847
NAVSTAR 80 (USA 309)    
1 46826U 20078A   26159.28285962  .00000057  00000+0  00000+0 0  9998
2 46826  53.9810 211.1400 0073181 206.9188 145.7868  2.00564887 41326
NAVSTAR 81 (USA 319)    
1 48859U 21054A   26159.01558419 -.00000060  00000+0  00000+0 0  9997
2 48859  55.1794 332.8289 0025106 228.6051 117.2821  2.00569684 36562
NAVSTAR 82 (USA 343)    
1 55268U 23009A   26158.23864182  .00000101  00000+0  00000+0 0  9996
2 55268  55.1217 148.9102 0006192 318.0671 224.9740  2.00572185 25047
NAVSTAR 83 (USA 440)    
1 62339U 24242A   26158.87064720 -.00000062  00000+0  00000+0 0  9990
2 62339  54.8519 334.5596 0017390   4.1176 357.6425  2.00571460 11077
NAVSTAR 84 (USA 545)    
1 64202U 25116A   26155.36633038 -.00000073  00000+0  00000+0 0  9999
2 64202  55.2259  31.6468 0008452 337.8257 196.1658  2.00577081  7616
NAVSTAR 85 (USA 581)    
1 67588U 26017A   26156.23183609  .00000004  00000+0  00000+0 0  9994
2 67588  55.0812  89.2351 0022663 257.5579 102.1794  2.00571538431377
NAVSTAR 86 (USA 585)    
1 68791U 26087A   26158.43909353  .00000057  00000+0  00000+0 0  9992
2 68791  54.9638 208.1735 0020931 107.2972 251.8874  2.00569573   638
